CCSDS_OEM_VERS = 1.0
CREATION_DATE  = 2017-05-11T11:02:56
ORIGINATOR     = GMAT USER

META_START
OBJECT_NAME          = MOPSSat_alt_35785_km_RAAN_0_094
OBJECT_ID            = SatId
CENTER_NAME          = Earth
REF_FRAME            = EME2000
TIME_SYSTEM          = UTC
START_TIME           = 2017-01-01T00:00:00.000
USEABLE_START_TIME   = 2017-01-01T00:00:00.000
USEABLE_STOP_TIME    = 2017-01-02T00:00:00.000
STOP_TIME            = 2017-01-02T00:00:00.000
INTERPOLATION        = Lagrange
INTERPOLATION_DEGREE = 7 
META_STOP


                                                                                   

2017-01-01T07:10:50.000  -2.087585560122481e+04   3.853550014451313e+04   2.735540674964307e-01  -2.717322280032507e+00  -1.163039807124036e+00   4.397481408616625e-05
2017-01-01T07:11:00.000  -2.090302387948724e+04   3.852386062482087e+04   2.739939517390984e-01  -2.716333271553461e+00  -1.164864018392160e+00   4.400203298442040e-05
2017-01-01T07:11:10.000  -2.093018226232371e+04   3.851220286739621e+04   2.744341080893400e-01  -2.715343161048617e+00  -1.166687339102331e+00   4.402923504980839e-05
2017-01-01T07:11:20.000  -2.095733073878939e+04   3.850052688111551e+04   2.748745363798832e-01  -2.714351949349370e+00  -1.168509768808649e+00   4.405642025930847e-05
2017-01-01T07:11:30.000  -2.098446929788718e+04   3.848883267488606e+04   2.753152364422349e-01  -2.713359637289165e+00  -1.170331307061881e+00   4.408358858985140e-05
2017-01-01T07:11:40.000  -2.101159792864720e+04   3.847712025761110e+04   2.757562081079852e-01  -2.712366225700535e+00  -1.172151953414792e+00   4.411074001839978e-05
2017-01-01T07:11:50.000  -2.103871661977033e+04   3.846538963834593e+04   2.761974512029713e-01  -2.711371715428308e+00  -1.173971707398242e+00   4.413787452159381e-05
2017-01-01T07:12:00.000  -2.106582536006036e+04   3.845364082610919e+04   2.766389655543445e-01  -2.710376107313633e+00  -1.175790568550169e+00   4.416499207618054e-05
2017-01-01T07:12:10.000  -2.109292413826327e+04   3.844187382995275e+04   2.770807509879453e-01  -2.709379402199909e+00  -1.177608536404799e+00   4.419209265885480e-05
2017-01-01T07:12:20.000  -2.112001294369052e+04   3.843008865869127e+04   2.775228073384627e-01  -2.708381600909861e+00  -1.179425610534474e+00   4.421917624687561e-05
2017-01-01T07:12:30.000  -2.114709176559721e+04   3.841828532117185e+04   2.779651344393031e-01  -2.707382704268400e+00  -1.181241790507921e+00   4.424624281745195e-05
2017-01-01T07:12:40.000  -2.117416059332312e+04   3.840646382621318e+04   2.784077321248812e-01  -2.706382713097456e+00  -1.183057075899721e+00   4.427329234788069e-05
2017-01-01T07:12:50.000  -2.120121941594082e+04   3.839462418275630e+04   2.788506002249258e-01  -2.705381628228781e+00  -1.184871466266679e+00   4.430032481520547e-05
2017-01-01T07:13:00.000  -2.122826822251726e+04   3.838276639975329e+04   2.792937385686960e-01  -2.704379450494485e+00  -1.186684961165401e+00   4.432734019646726e-05
2017-01-01T07:13:10.000  -2.125530700211333e+04   3.837089048616636e+04   2.797371469849980e-01  -2.703376180726982e+00  -1.188497560152243e+00   4.435433846870806e-05
2017-01-01T07:13:20.000  -2.128233574352513e+04   3.835899645108443e+04   2.801808252978844e-01  -2.702371819768774e+00  -1.190309262766003e+00   4.438131960870043e-05
2017-01-01T07:13:30.000  -2.130935443563287e+04   3.834708430356709e+04   2.806247733324316e-01  -2.701366368459326e+00  -1.192120068551279e+00   4.440828359330804e-05
2017-01-01T07:13:40.000  -2.133636306726333e+04   3.833515405270563e+04   2.810689909124695e-01  -2.700359827640213e+00  -1.193929977049256e+00   4.443523039934367e-05
2017-01-01T07:13:50.000  -2.136336162779932e+04   3.832320570735411e+04   2.815134778706030e-01  -2.699352198132417e+00  -1.195738987838546e+00   4.446216000419050e-05
2017-01-01T07:14:00.000  -2.139035010657010e+04   3.831123927639812e+04   2.819582340381929e-01  -2.698343480759024e+00  -1.197547100494336e+00   4.448907238518071e-05
2017-01-01T07:14:10.000  -2.141732849298935e+04   3.829925476869439e+04   2.824032592476164e-01  -2.697333676340107e+00  -1.199354314597638e+00   4.451596751973808e-05
2017-01-01T07:14:20.000  -2.144429677620441e+04   3.828725219322349e+04   2.828485533265410e-01  -2.696322785705662e+00  -1.201160629711759e+00   4.454284538501454e-05
2017-01-01T07:14:30.000  -2.147125494535706e+04   3.827523155897712e+04   2.832941161021649e-01  -2.695310809686039e+00  -1.202966045399802e+00   4.456970595816396e-05
2017-01-01T07:14:40.000  -2.149820298958299e+04   3.826319287495717e+04   2.837399474012324e-01  -2.694297749111898e+00  -1.204770561224623e+00   4.459654921633642e-05
2017-01-01T07:14:50.000  -2.152514089775407e+04   3.825113615029375e+04   2.841860470457119e-01  -2.693283604824078e+00  -1.206574176731589e+00   4.462337513643504e-05
2017-01-01T07:15:00.000  -2.155206865882600e+04   3.823906139408715e+04   2.846324148586032e-01  -2.692268377660352e+00  -1.208376891471841e+00   4.465018369544890e-05
2017-01-01T07:15:10.000  -2.157898626170120e+04   3.822696861546967e+04   2.850790506616550e-01  -2.691252068460618e+00  -1.210178704993113e+00   4.467697487032125e-05
2017-01-01T07:15:20.000  -2.160589369583632e+04   3.821485782333295e+04   2.855259542854414e-01  -2.690234678043991e+00  -1.211979616880396e+00   4.470374863854162e-05
2017-01-01T07:15:30.000  -2.163279095063459e+04   3.820272902660058e+04   2.859731255592887e-01  -2.689216207231691e+00  -1.213779626715271e+00   4.473050497755362e-05
2017-01-01T07:15:40.000  -2.165967801558341e+04   3.819058223416667e+04   2.864205643135465e-01  -2.688196656841907e+00  -1.215578734085109e+00   4.475724386488740e-05
2017-01-01T07:15:50.000  -2.168655487990474e+04   3.817841745505083e+04   2.868682703738316e-01  -2.687176027702839e+00  -1.217376938559648e+00   4.478396527782322e-05
2017-01-01T07:16:00.000  -2.171342153281501e+04   3.816623469828382e+04   2.873162435652921e-01  -2.686154320643050e+00  -1.219174239708429e+00   4.481066919363878e-05
2017-01-01T07:16:10.000  -2.174027796352461e+04   3.815403397290652e+04   2.877644837126214e-01  -2.685131536491406e+00  -1.220970637100730e+00   4.483735558961247e-05
2017-01-01T07:16:20.000  -2.176712416098099e+04   3.814181528808971e+04   2.882129906357140e-01  -2.684107676087058e+00  -1.222766130288422e+00   4.486402444275833e-05
2017-01-01T07:16:30.000  -2.179396011421518e+04   3.812957865297372e+04   2.886617641555040e-01  -2.683082740266044e+00  -1.224560718829120e+00   4.489067573017982e-05
2017-01-01T07:16:40.000  -2.182078581220250e+04   3.811732407673255e+04   2.891108040916260e-01  -2.682056729866660e+00  -1.226354402276868e+00   4.491730942892842e-05
2017-01-01T07:16:50.000  -2.184760124447819e+04   3.810505156829261e+04   2.895601102727174e-01  -2.681029645705916e+00  -1.228147180223297e+00   4.494392551662269e-05
2017-01-01T07:17:00.000  -2.187440640052007e+04   3.809276113661443e+04   2.900096825260925e-01  -2.680001488603119e+00  -1.229939052256360e+00   4.497052397082803e-05
2017-01-01T07:17:10.000  -2.190120126990804e+04   3.808045279062021e+04   2.904595206804058e-01  -2.678972259373797e+00  -1.231730017970986e+00   4.499710476921720e-05
2017-01-01T07:17:20.000  -2.192798584189511e+04   3.806812653938820e+04   2.909096245584992e-01  -2.677941958846012e+00  -1.233520076940383e+00   4.502366788913924e-05
2017-01-01T07:17:30.000  -2.195476010576151e+04   3.805578239199259e+04   2.913599939832999e-01  -2.676910587846921e+00  -1.235309228739738e+00   4.505021330797598e-05
2017-01-01T07:17:40.000  -2.198152405073568e+04   3.804342035753911e+04   2.918106287765054e-01  -2.675878147205761e+00  -1.237097472940919e+00   4.507674100306237e-05
2017-01-01T07:17:50.000  -2.200827766601635e+04   3.803104044515652e+04   2.922615287589237e-01  -2.674844637753116e+00  -1.238884809113976e+00   4.510325095171079e-05
2017-01-01T07:18:00.000  -2.203502094079864e+04   3.801864266398326e+04   2.927126937509385e-01  -2.673810060319814e+00  -1.240671236828861e+00   4.512974313123481e-05
2017-01-01T07:18:10.000  -2.206175386428372e+04   3.800622702316302e+04   2.931641235726702e-01  -2.672774415736568e+00  -1.242456755656085e+00   4.515621751895878e-05
2017-01-01T07:18:20.000  -2.208847642577483e+04   3.799379353180095e+04   2.936158180455812e-01  -2.671737704830301e+00  -1.244241365173125e+00   4.518267409231500e-05
2017-01-01T07:18:30.000  -2.211518861461301e+04   3.798134219899256e+04   2.940677769914106e-01  -2.670699928426579e+00  -1.246025064960135e+00   4.520911282877710e-05
2017-01-01T07:18:40.000  -2.214189042017728e+04   3.796887303382381e+04   2.945200002321727e-01  -2.669661087349612e+00  -1.247807854599948e+00   4.523553370586216e-05
2017-01-01T07:18:50.000  -2.216858183194786e+04   3.795638604534070e+04   2.949724875912448e-01  -2.668621182419742e+00  -1.249589733682299e+00   4.526193670118581e-05
2017-01-01T07:19:00.000  -2.219526283941099e+04   3.794388124259447e+04   2.954252388917428e-01  -2.667580214457185e+00  -1.251370701797462e+00   4.528832179237603e-05
2017-01-01T07:19:10.000  -2.222193343204936e+04   3.793135863464606e+04   2.958782539563558e-01  -2.666538184282413e+00  -1.253150758535625e+00   4.531468895706068e-05
2017-01-01T07:19:20.000  -2.224859359931495e+04   3.791881823057763e+04   2.963315326069119e-01  -2.665495092717128e+00  -1.254929903485055e+00   4.534103817285093e-05
2017-01-01T07:19:30.000  -2.227524333060842e+04   3.790626003950377e+04   2.967850746639960e-01  -2.664450940585176e+00  -1.256708136230742e+00   4.536736941731037e-05
2017-01-01T07:19:40.000  -2.230188261535726e+04   3.789368407053415e+04   2.972388799482916e-01  -2.663405728709440e+00  -1.258485456359606e+00   4.539368266803612e-05
2017-01-01T07:19:50.000  -2.232851144266570e+04   3.788109033294089e+04   2.976929482745759e-01  -2.662359457925718e+00  -1.260261863437159e+00   4.541997790230142e-05
